[{"OBJECT_NAME":"STARLINK-31704","OBJECT_ID":"2024-076Y","EPOCH":"2026-03-09T22:00:01.999584","MEAN_MOTION":15.30892355,"ECCENTRICITY":0.00079744,"INCLINATION":42.9978,"RA_OF_ASC_NODE":323.2923,"ARG_OF_PERICENTER":240.5046,"MEAN_ANOMALY":200.4144,"EPHEMERIS_TYPE":0,"CLASSIFICATION_TYPE":"U","NORAD_CAT_ID":59586,"ELEMENT_SET_NO":999,"REV_AT_EPOCH":581,"BSTAR":0.0024766131,"MEAN_MOTION_DOT":0.00076042,"MEAN_MOTION_DDOT":0},{"OBJECT_NAME":"STARLINK-33780","OBJECT_ID":"2025-069AC","EPOCH":"2026-03-09T11:23:59.484192","MEAN_MOTION":15.30188672,"ECCENTRICITY":0.00012135,"INCLINATION":53.1585,"RA_OF_ASC_NODE":143.3268,"ARG_OF_PERICENTER":77.6329,"MEAN_ANOMALY":282.4807,"EPHEMERIS_TYPE":0,"CLASSIFICATION_TYPE":"U","NORAD_CAT_ID":63459,"ELEMENT_SET_NO":999,"REV_AT_EPOCH":5326,"BSTAR":0.00071430694,"MEAN_MOTION_DOT":0.00020849,"MEAN_MOTION_DDOT":0}]
